$$SOE
2461281.500000000, A.D. 2026-Aug-29 00:00:00.0000, -5.589257663071856E+09, -1.562355015798399E+08, -8.966070881332465E+08,
2461288.500000000, A.D. 2026-Sep-05 00:00:00.0000, -5.589321506286597E+09, -1.594097648206077E+08, -8.969236327361892E+08,
2461295.500000000, A.D. 2026-Sep-12 00:00:00.0000, -5.589383824937509E+09, -1.625840344929025E+08, -8.972399374636263E+08,
2461302.500000000, A.D. 2026-Sep-19 00:00:00.0000, -5.589444620721461E+09, -1.657583107343393E+08, -8.975560021023449E+08,
2461309.500000000, A.D. 2026-Sep-26 00:00:00.0000, -5.589503894957466E+09, -1.689325942649386E+08, -8.978718264873195E+08,
2461316.500000000, A.D. 2026-Oct-03 00:00:00.0000, -5.589561648516442E+09, -1.721068861517608E+08, -8.981874104920335E+08,
2461323.500000000, A.D. 2026-Oct-10 00:00:00.0000, -5.589617881837544E+09, -1.752811876662304E+08, -8.985027540193565E+08,
2461330.500000000, A.D. 2026-Oct-17 00:00:00.0000, -5.589672594979465E+09, -1.784555002150047E+08, -8.988178569960871E+08,
2461337.500000000, A.D. 2026-Oct-24 00:00:00.0000, -5.589725787682268E+09, -1.816298253669265E+08, -8.991327193751460E+08,
2461344.500000000, A.D. 2026-Oct-31 00:00:00.0000, -5.589777459341017E+09, -1.848041650427047E+08, -8.994473411598027E+08,
2461351.500000000, A.D. 2026-Nov-07 00:00:00.0000, -5.589827608552129E+09, -1.879785217932296E+08, -8.997617224748189E+08,
2461358.500000000, A.D. 2026-Nov-14 00:00:00.0000, -5.589876232031581E+09, -1.911528982790965E+08, -9.000758636302083E+08,
2461365.500000000, A.D. 2026-Nov-21 00:00:00.0000, -5.589923324716693E+09, -1.943272952694705E+08, -9.003897649554847E+08,
2461372.500000000, A.D. 2026-Nov-28 00:00:00.0000, -5.589968882049628E+09, -1.975017111683450E+08, -9.007034265584257E+08,
2461379.500000000, A.D. 2026-Dec-05 00:00:00.0000, -5.590012900823019E+09, -2.006761437245325E+08, -9.010168483936737E+08,
2461386.500000000, A.D. 2026-Dec-12 00:00:00.0000, -5.590055378422852E+09, -2.038505908143986E+08, -9.013300304017793E+08,
2461393.500000000, A.D. 2026-Dec-19 00:00:00.0000, -5.590096312355821E+09, -2.070250502909151E+08, -9.016429725448022E+08,
2461400.500000000, A.D. 2026-Dec-26 00:00:00.0000, -5.590135700203623E+09, -2.101995197671086E+08, -9.019556747961253E+08,
2461407.500000000, A.D. 2027-Jan-02 00:00:00.0000, -5.590173539728583E+09, -2.133739965249370E+08, -9.022681371252202E+08,
2461414.500000000, A.D. 2027-Jan-09 00:00:00.0000, -5.590209829014316E+09, -2.165484775295994E+08, -9.025803594863037E+08,
2461421.500000000, A.D. 2027-Jan-16 00:00:00.0000, -5.590244566607095E+09, -2.197229595406766E+08, -9.028923418133438E+08,
2461428.500000000, A.D. 2027-Jan-23 00:00:00.0000, -5.590277751613385E+09, -2.228974393599353E+08, -9.032040840288420E+08,
2461435.500000000, A.D. 2027-Jan-30 00:00:00.0000, -5.590309383567395E+09, -2.260719142637660E+08, -9.035155860875540E+08,
2461442.500000000, A.D. 2027-Feb-06 00:00:00.0000, -5.590339461645548E+09, -2.292463822803837E+08, -9.038268480664003E+08,
2461449.500000000, A.D. 2027-Feb-13 00:00:00.0000, -5.590367983689772E+09, -2.324208410922410E+08, -9.041378701588123E+08,
2461456.500000000, A.D. 2027-Feb-20 00:00:00.0000, -5.590394947404792E+09, -2.355952863547483E+08, -9.044486524215145E+08,
2461463.500000000, A.D. 2027-Feb-27 00:00:00.0000, -5.590420352334453E+09, -2.387697126450265E+08, -9.047591946646149E+08,
2461470.500000000, A.D. 2027-Mar-06 00:00:00.0000, -5.590444199599584E+09, -2.419441151181254E+08, -9.050694966048849E+08,
2461477.500000000, A.D. 2027-Mar-13 00:00:00.0000, -5.590466490997929E+09, -2.451184898212590E+08, -9.053795579681782E+08,
2461484.500000000, A.D. 2027-Mar-20 00:00:00.0000, -5.590487228595741E+09, -2.482928335006983E+08, -9.056893785057824E+08,
2461491.500000000, A.D. 2027-Mar-27 00:00:00.0000, -5.590506414609041E+09, -2.514671434502647E+08, -9.059989579882387E+08,
2461498.500000000, A.D. 2027-Apr-03 00:00:00.0000, -5.590524051371649E+09, -2.546414174491611E+08, -9.063082961992471E+08,
2461505.500000000, A.D. 2027-Apr-10 00:00:00.0000, -5.590540141328771E+09, -2.578156537660758E+08, -9.066173929334641E+08,
2461512.500000000, A.D. 2027-Apr-17 00:00:00.0000, -5.590554687034033E+09, -2.609898512438721E+08, -9.069262480014311E+08,
2461519.500000000, A.D. 2027-Apr-24 00:00:00.0000, -5.590567691070778E+09, -2.641640095270230E+08, -9.072348612540104E+08,
2461526.500000000, A.D. 2027-May-01 00:00:00.0000, -5.590579155597958E+09, -2.673381294039814E+08, -9.075432326515348E+08,
2461533.500000000, A.D. 2027-May-08 00:00:00.0000, -5.590589081213271E+09, -2.705122125160907E+08, -9.078513623446984E+08,
2461540.500000000, A.D. 2027-May-15 00:00:00.0000, -5.590597466630376E+09, -2.736862594796012E+08, -9.081592505519589E+08,
2461547.500000000, A.D. 2027-May-22 00:00:00.0000, -5.590604310734064E+09, -2.768602690123960E+08, -9.084668973017823E+08,
2461554.500000000, A.D. 2027-May-29 00:00:00.0000, -5.590609613657481E+09, -2.800342395336833E+08, -9.087743024674509E+08,
2461561.500000000, A.D. 2027-Jun-05 00:00:00.0000, -5.590613375996510E+09, -2.832081701049020E+08, -9.090814659195551E+08,
2461568.500000000, A.D. 2027-Jun-12 00:00:00.0000, -5.590615598168896E+09, -2.863820602800508E+08, -9.093883875766522E+08,
2461575.500000000, A.D. 2027-Jun-19 00:00:00.0000, -5.590616280249109E+09, -2.895559098004474E+08, -9.096950673999933E+08,
2461582.500000000, A.D. 2027-Jun-26 00:00:00.0000, -5.590615421999524E+09, -2.927297183952353E+08, -9.100015053791287E+08,
2461589.500000000, A.D. 2027-Jul-03 00:00:00.0000, -5.590613022965803E+09, -2.959034856793404E+08, -9.103077015196093E+08,
2461596.500000000, A.D. 2027-Jul-10 00:00:00.0000, -5.590609082599630E+09, -2.990772111401521E+08, -9.106136558352197E+08,
2461603.500000000, A.D. 2027-Jul-17 00:00:00.0000, -5.590603600372451E+09, -3.022508942517911E+08, -9.109193683509971E+08,
2461610.500000000, A.D. 2027-Jul-24 00:00:00.0000, -5.590596575723797E+09, -3.054245347797704E+08, -9.112248391362716E+08,
2461617.500000000, A.D. 2027-Jul-31 00:00:00.0000, -5.590588007432746E+09, -3.085981330405324E+08, -9.115300683859886E+08,
2461624.500000000, A.D. 2027-Aug-07 00:00:00.0000, -5.590577892613265E+09, -3.117716889641373E+08, -9.118350564376001E+08,
2461631.500000000, A.D. 2027-Aug-14 00:00:00.0000, -5.590566227634535E+09, -3.149452002134133E+08, -9.121398035330629E+08,
2461638.500000000, A.D. 2027-Aug-21 00:00:00.0000, -5.590553010348055E+09, -3.181186627237497E+08, -9.124443096575466E+08,
2461645.500000000, A.D. 2027-Aug-28 00:00:00.0000, -5.590538240190449E+09, -3.212920724603148E+08, -9.127485746712254E+08,
2461652.500000000, A.D. 2027-Sep-04 00:00:00.0000, -5.590521917343131E+09, -3.244654258903965E+08, -9.130525984214573E+08,
2461659.500000000, A.D. 2027-Sep-11 00:00:00.0000, -5.590504042344140E+09, -3.276387198321633E+08, -9.133563807616168E+08,
2461666.500000000, A.D. 2027-Sep-18 00:00:00.0000, -5.590484616018962E+09, -3.308119513299240E+08, -9.136599215421753E+08,
2461673.500000000, A.D. 2027-Sep-25 00:00:00.0000, -5.590463639501475E+09, -3.339851176332833E+08, -9.139632206016284E+08,
2461680.500000000, A.D. 2027-Oct-02 00:00:00.0000, -5.590441114269955E+09, -3.371582162522970E+08, -9.142662777621686E+08,
2461687.500000000, A.D. 2027-Oct-09 00:00:00.0000, -5.590417042175617E+09, -3.403312450927328E+08, -9.145690928327798E+08,
2461694.500000000, A.D. 2027-Oct-16 00:00:00.0000, -5.590391425400441E+09, -3.435042027258947E+08, -9.148716656302645E+08,
2461701.500000000, A.D. 2027-Oct-23 00:00:00.0000, -5.590364266084253E+09, -3.466770887983078E+08, -9.151739960426885E+08,
2461708.500000000, A.D. 2027-Oct-30 00:00:00.0000, -5.590335565246247E+09, -3.498499039705896E+08, -9.154760841198752E+08,
2461715.500000000, A.D. 2027-Nov-06 00:00:00.0000, -5.590305322164219E+09, -3.530226482570792E+08, -9.157779299921513E+08,
2461722.500000000, A.D. 2027-Nov-13 00:00:00.0000, -5.590273536196925E+09, -3.561953198422082E+08, -9.160795336049865E+08,
2461729.500000000, A.D. 2027-Nov-20 00:00:00.0000, -5.590240208147615E+09, -3.593679165593207E+08, -9.163808947143313E+08,
2461736.500000000, A.D. 2027-Nov-27 00:00:00.0000, -5.590205339551153E+09, -3.625404370673591E+08, -9.166820130487131E+08,
2461743.500000000, A.D. 2027-Dec-04 00:00:00.0000, -5.590168931908255E+09, -3.657128808114040E+08, -9.169828883777784E+08,
2461750.500000000, A.D. 2027-Dec-11 00:00:00.0000, -5.590130986417422E+09, -3.688852477309600E+08, -9.172835205155119E+08,
2461757.500000000, A.D. 2027-Dec-18 00:00:00.0000, -5.590091503929590E+09, -3.720575380549898E+08, -9.175839093109814E+08,
2461764.500000000, A.D. 2027-Dec-25 00:00:00.0000, -5.590050484973491E+09, -3.752297521857547E+08, -9.178840546406451E+08,
2461771.500000000, A.D. 2028-Jan-01 00:00:00.0000, -5.590007929810326E+09, -3.784018906567719E+08, -9.181839564047137E+08,
$$EOE